STARLINK-4651           
1 53729U 22107AF  24024.55912734  .00000129  00000+0  26216-4 0  9998
2 53729  53.2181 133.9298 0001833  54.2833 305.8330 15.08838062 77561
STARLINK-4641           
1 53730U 22107AG  24024.61799713  .00000724  00000+0  63574-4 0  9996
2 53730  53.2181 133.5881 0001724  73.5229 286.5953 15.08837417 77546
STARLINK-4636           
1 53731U 22107AH  24024.56280963 -.00002437  00000+0 -13501-3 0  9992
2 53731  53.2174 133.9548 0001773  64.5297 295.5879 15.08850197 76931
STARLINK-4661           
1 53732U 22107AJ  24024.55639994 -.00000402  00000+0 -71402-5 0  9990
2 53732  53.2174 133.9115 0001677  68.8167 291.3005 15.08837226 77538
STARLINK-4574           
1 53733U 22107AK  24024.57017454 -.00000537  00000+0 -15613-4 0  9994
2 53733  53.2175 133.9988 0001787  67.6959 292.4223 15.08843487 77569
STARLINK-4616           
1 53734U 22107AL  24024.48920169 -.00000066  00000+0  13940-4 0  9998
2 53734  53.2178 134.2034 0001719  73.0364 287.0816 15.08835288 77552
STARLINK-4618           
1 53735U 22107AM  24024.59864963  .00002474  00000+0  17352-3 0  9994
2 53735  53.2144 143.4604 0001434  77.1345 282.9808 15.08832496 77439
STARLINK-4652           
1 53736U 22107AN  24024.56649550 -.00000174  00000+0  71621-5 0  9992
2 53736  53.2184 133.9734 0001670  82.5693 277.5489 15.08836215 77562
STARLINK-4646           
1 53737U 22107AP  24024.60232862 -.00000117  00000+0  10728-4 0  9999
2 53737  53.2175 143.4764 0001515 103.6615 256.4546 15.08840805 77581
STARLINK-4662           
1 53738U 22107AQ  24024.59496143  .00000317  00000+0  37987-4 0  9999
2 53738  53.2166 143.4302 0001482  70.0457 290.0694 15.08840213 76809
STARLINK-4607           
1 53740U 22107AS  24024.53977548  .00000060  00000+0  21874-4 0  9992
2 53740  53.2156 143.7955 0001275  84.7284 275.3854 15.08837526 77570
STARLINK-4614           
1 53741U 22107AT  24024.51817771  .00000052  00000+0  21346-4 0  9997
2 53741  53.2186 128.7756 0001576 105.1756 254.9411 15.08835481 77785
STARLINK-4637           
1 53742U 22107AU  24024.60970037  .00002085  00000+0  14906-3 0  9994
2 53742  53.2171 143.5202 0001640 110.3997 249.7171 15.08833304 77583
STARLINK-4645           
1 53743U 22107AV  24024.55819928 -.00000747  00000+0 -28835-4 0  9992
2 53743  53.2158 143.9094 0001332  86.6737 273.4407 15.08834409 77579
STARLINK-4670           
1 53744U 22107AW  24024.58022642  .00000056  00000+0  21613-4 0  9993
2 53744  53.2167 143.3436 0001490  78.2484 281.8675 15.08835890 77581
STARLINK-4656           
1 53745U 22107AX  24024.56188780  .00000226  00000+0  32281-4 0  9990
2 53745  53.2175 143.9311 0001498 104.8897 255.2261 15.08834243 77577
STARLINK-4589           
1 53746U 22107AY  24024.62075614 -.00000244  00000+0  27386-5 0  9991
2 53746  53.2181 143.5926 0001633 119.8788 240.2366 15.08834647 77588
STARLINK-4669           
1 53748U 22107BA  24024.54728507  .00036489  00000+0  22112-2 0  9998
2 53748  53.2160 143.8501 0000869  75.8850 284.2240 15.10260306 77576
STARLINK-4680           
1 53749U 22107BB  24024.63544688 -.00026205  00000+0 -16345-2 0  9993
2 53749  53.2170 143.6424 0001230  94.5159 265.5973 15.08838406 76802
STARLINK-4612           
1 53750U 22107BC  24024.63918109  .00026966  00000+0  17059-2 0  9993
2 53750  53.2153 143.7040 0001816  74.4879 285.6314 15.08839885 76800
SHERPA-LTC2             
1 53754U 22107BG  24024.05233406  .00008652  00000+0  50409-3 0  9992
2 53754  53.2417 285.6529 0452710 325.3182  31.9016 14.54310567 74476
STARLINK-4718           
1 53773U 22111A   24024.65937659 -.00001920  00000+0 -10256-3 0  9994
2 53773  53.2175 163.2908 0001170  96.0824 264.0301 15.08845223 75744
STARLINK-4719           
1 53774U 22111B   24024.58945545 -.00000296  00000+0 -47932-6 0  9999
2 53774  53.2172 163.5650 0001431  71.3447 288.7701 15.08837908 76699
STARLINK-4722           
1 53775U 22111C   24024.61986012  .00000697  00000+0  61894-4 0  9992
2 53775  53.2189 153.7766 0002320  51.1950 308.9249 15.08837940 75877
STARLINK-4708           
1 53776U 22111D   24024.68106593  .00000382  00000+0  42067-4 0  9990
2 53776  53.2175 158.4439 0001291  77.0797 283.0339 15.08839159 75815
STARLINK-4664           
1 53777U 22111E   24024.67872936 -.00000204  00000+0  53013-5 0  9999
2 53777  53.2174 153.4406 0001542  78.0555 282.0610 15.08839805 75882
STARLINK-4709           
1 53778U 22111F   24024.57333716  .00000259  00000+0  34369-4 0  9998
2 53778  53.2163 158.4837 0001394  66.9335 293.1804 15.08833601 76619
STARLINK-4706           
1 53779U 22111G   24024.67504158 -.00000833  00000+0 -34265-4 0  9995
2 53779  53.2182 153.4132 0001338  67.5692 292.5442 15.08843881 75885
STARLINK-4678           
1 53780U 22111H   24024.61617667 -.00000247  00000+0  25557-5 0  9994
2 53780  53.2188 153.7553 0001916  64.8259 295.2932 15.08837884 75873
STARLINK-4462           
1 53781U 22111J   24024.66398999  .00000011  00000+0  18805-4 0  9999
2 53781  53.2173 153.3447 0001432  95.3174 264.7982 15.08836124 75887
STARLINK-4679           
1 53782U 22111K   24024.67136079  .00004278  00000+0  28663-3 0  9991
2 53782  53.2162 153.3906 0001590  66.5755 293.5404 15.08851741 75887
STARLINK-4536           
1 53783U 22111L   24024.59037393 -.00005392  00000+0 -32085-3 0  9995
2 53783  53.2170 153.5926 0001464  99.8557 260.2601 15.08846849 75872
STARLINK-4687           
1 53784U 22111M   24024.66767469  .00000276  00000+0  35424-4 0  9993
2 53784  53.2185 153.3673 0001729  80.2927 279.8261 15.08839754 75881
STARLINK-4631           
1 53786U 22111P   24024.56279816 -.00000120  00000+0  10556-4 0  9996
2 53786  53.2170 143.5642 0001272  85.7844 274.3294 15.08835388 76825
STARLINK-4743           
1 53787U 22111Q   24024.58301103 -.00000354  00000+0 -41431-5 0  9991
2 53787  53.2179 153.5507 0001531 108.7802 251.3356 15.08833295 76687
STARLINK-4666           
1 53789U 22111S   24024.57195278  .00004416  00000+0  29529-3 0  9999
2 53789  53.2160 153.4817 0001545  94.1151 266.0018 15.08849704 76671
STARLINK-4734           
1 53790U 22111T   24024.58669568 -.00000545  00000+0 -16187-4 0  9998
2 53790  53.2176 153.5755 0001350 103.8803 256.2339 15.08835677 76680
STARLINK-4739           
1 53792U 22111V   24024.57932534  .00000123  00000+0  25820-4 0  9999
2 53792  53.2179 153.5291 0001748 116.0380 244.0792 15.08834526 76676
STARLINK-4728           
1 53793U 22111W   24024.57659803 -.00000359  00000+0 -44719-5 0  9997
2 53793  53.2176 153.5107 0001435 107.4072 252.7077 15.08833907 76679
STARLINK-4730           
1 53794U 22111X   24024.58396816 -.00000225  00000+0  39282-5 0  9991
2 53794  53.2180 153.5543 0001527 108.9257 251.1901 15.08834273 76678
STARLINK-4742           
1 53795U 22111Y   24024.63450637  .00000301  00000+0  37024-4 0  9995
2 53795  53.2174 153.1602 0001370  88.0596 272.0553 15.08847591 75888
STARLINK-4721           
1 53796U 22111Z   24024.57379103  .00001944  00000+0  14024-3 0  9995
2 53796  53.2170 133.4168 0001399  81.1692 278.9459 15.08825263 76237
STARLINK-4723           
1 53797U 22111AA  24024.55721979  .00003344  00000+0  22820-3 0  9995
2 53797  53.2154 153.3978 0001525 100.1818 259.9346 15.08820187 76664
STARLINK-4712           
1 53798U 22111AB  24024.56089896 -.00000469  00000+0 -11357-4 0  9993
2 53798  53.2166 153.4113 0001365 101.2948 258.8198 15.08839200 76667
STARLINK-4710           
1 53799U 22111AC  24024.60331494 -.00000504  00000+0 -13552-4 0  9992
2 53799  53.2177 143.6907 0001608  98.9369 261.1805 15.08836212 76809
STARLINK-4720           
1 53800U 22111AD  24024.59130660  .00002235  00000+0  15849-3 0  9996
2 53800  53.2178 143.6208 0001849  61.6747 298.4432 15.08832434 75991
STARLINK-4715           
1 53801U 22111AE  24024.63648162  .00000232  00000+0  32654-4 0  9992
2 53801  53.2171 143.8851 0001373  83.5739 276.5409 15.08831705 75998
STARLINK-4726           
1 53802U 22111AF  24024.58393586  .00000017  00000+0  19165-4 0  9997
2 53802  53.2170 143.5712 0001612  76.2848 283.8324 15.08837800 76807
STARLINK-4727           
1 53803U 22111AG  24024.59821697 -.00000043  00000+0  15360-4 0  9991
2 53803  53.2162 128.6895 0001327  76.0784 284.0356 15.08838440 77018
STARLINK-4729           
1 53804U 22111AH  24024.57612324  .00002075  00000+0  14834-3 0  9995
2 53804  53.2176 138.5234 0001518  86.4158 273.7008 15.08855651 76069
STARLINK-4763           
1 53805U 22111AJ  24024.60654577 -.00000251  00000+0  23045-5 0  9997
2 53805  53.2175 128.7342 0001496  73.9485 286.1672 15.08840312 77018
STARLINK-4768           
1 53806U 22111AK  24024.57979371 -.00000851  00000+0 -35409-4 0  9999
2 53806  53.2181 128.5697 0001637 107.7153 252.4018 15.08833951 77013
BLUEWALKER 3            
1 53807U 22111AL  24024.61651726  .00007092  00000+0  30445-3 0  9992
2 53807  53.2355 138.5954 0009958  27.4487 332.7036 15.23755714 76171
STARLINK-4749           
1 53818U 22114A   24024.62041267 -.00012682  00000+0 -62961-3 0  9992
2 53818  53.2187 165.4393 0000619 102.5986 257.5079 15.16446435 75546
STARLINK-4738           
1 53819U 22114B   24024.71372323  .00000380  00000+0  41971-4 0  9992
2 53819  53.2170 183.3135 0001546 120.5793 239.5352 15.08840770 75295
STARLINK-4758           
1 53820U 22114C   24024.71645659 -.00000316  00000+0 -17317-5 0  9998
2 53820  53.2159 183.3317 0001528  67.9046 292.2108 15.08839341 75298
STARLINK-4752           
1 53821U 22114D   24024.59914211  .00000297  00000+0  36745-4 0  9999
2 53821  53.2166 128.4491 0001311  86.7981 273.3161 15.08839556 76598
STARLINK-4748           
1 53823U 22114F   24024.55680353 -.00003833  00000+0 -22286-3 0  9999
2 53823  53.2170 138.8098 0001274  90.1308 269.9830 15.08845347 76446
STARLINK-4757           
1 53824U 22114G   24024.70538467 -.00003846  00000+0 -22365-3 0  9997
2 53824  53.2162 183.2599 0001431  63.1354 296.9785 15.08844008 75298
